NORAD_CAT_ID,OBJECT_NAME,OBJECT_TYPE,EPOCH,MEAN_MOTION,ECCENTRICITY,INCLINATION,RA_OF_ASC_NODE,ARG_OF_PERICENTER,MEAN_ANOMALY,BSTAR,MEAN_MOTION_DOT,MEAN_MOTION_DDOT,TLE_LINE0,TLE_LINE1,TLE_LINE2,SEMIMAJOR_AXIS,PERIOD,APOGEE,PERIGEE,DECAYED
55927.0,STARLINK-5919,PAYLOAD,2023-12-02 03:47:43,14.98380273,0.0002215,70.0006,233.3806,228.7717,131.3251,-0.00031011,-3.796e-05,0.0,0 STARLINK-5919,1 55927U 23037P   23336.15814099 -.00003796  00000-0 -31011-3 0  9993,2 55927  70.0006 233.3806 0002215 228.7717 131.3251 14.98380273 39724,6950.037,96.104,573.442,570.363,0.0
55927.0,STARLINK-5919,PAYLOAD,2023-12-02 19:49:06,14.98322564,0.0002357,70.0002,231.696,253.368,106.7221,2.2515e-05,1.76e-06,0.0,0 STARLINK-5919,1 55927U 23037P   23336.82577224  .00000176  00000-0  22515-4 0  9990,2 55927  70.0002 231.6960 0002357 253.3680 106.7221 14.98322564 39825,6950.216,96.107,573.719,570.443,0.0
55927.0,STARLINK-5919,PAYLOAD,2023-12-02 21:25:15,14.98317571,0.0002245,70.0004,231.527,238.565,121.529,-3.327e-05,-4.9e-06,0.0,0 STARLINK-5919,1 55927U 23037P   23336.89253597 -.00000490  00000-0 -33270-4 0  9992,2 55927  70.0004 231.5270 0002245 238.5650 121.5290 14.98317571 39494,6950.231,96.108,573.657,570.536,0.0
55927.0,STARLINK-5919,PAYLOAD,2023-12-03 02:13:39,14.9831615,0.0002258,70.0002,231.0215,252.8728,107.2183,-2.9076e-05,-4.4e-06,0.0,0 STARLINK-5919,1 55927U 23037P   23337.09281845 -.00000440  00000-0 -29076-4 0  9996,2 55927  70.0002 231.0215 0002258 252.8728 107.2183 14.98316150 39860,6950.236,96.108,573.67,570.531,0.0
55927.0,STARLINK-5919,PAYLOAD,2023-12-03 19:51:07,14.98329411,0.0002207,70.0002,229.1703,258.0568,102.0343,-0.00013851,-1.745e-05,0.0,0 STARLINK-5919,1 55927U 23037P   23337.82717588 -.00001745  00000-0 -13851-3 0  9997,2 55927  70.0002 229.1703 0002207 258.0568 102.0343 14.98329411 39971,6950.195,96.107,573.594,570.526,0.0
55927.0,STARLINK-5919,PAYLOAD,2023-12-04 02:15:40,14.98328705,0.0002122,70.0002,228.4962,253.4061,106.6865,-0.00012813,-1.621e-05,0.0,0 STARLINK-5919,1 55927U 23037P   23338.09421574 -.00001621  00000-0 -12813-3 0  9994,2 55927  70.0002 228.4962 0002122 253.4061 106.6865 14.98328705 39674,6950.197,96.107,573.537,570.587,0.0
55927.0,STARLINK-5919,PAYLOAD,2023-12-05 02:17:40,14.98330245,0.0001902,70.0,225.9709,270.7436,89.3505,0.00024794,2.867e-05,0.0,0 STARLINK-5919,1 55927U 23037P   23339.09560562  .00002867  00000-0  24794-3 0  9998,2 55927  70.0000 225.9709 0001902 270.7436  89.3505 14.98330245 40162,6950.192,96.107,573.379,570.735,0.0
55927.0,STARLINK-5919,PAYLOAD,2023-12-06 02:19:41,14.98325786,0.0001833,70.0001,223.4467,274.7674,85.3275,7.7283e-05,8.29e-06,0.0,0 STARLINK-5919,1 55927U 23037P   23340.09701265  .00000829  00000-0  77283-4 0  9995,2 55927  70.0001 223.4467 0001833 274.7674  85.3275 14.98325786 40319,6950.206,96.107,573.345,570.797,0.0
55927.0,STARLINK-5919,PAYLOAD,2023-12-07 02:21:42,14.98327118,0.0001844,70.0001,220.9203,296.788,63.3091,1.1276e-05,4.2e-07,0.0,0 STARLINK-5919,1 55927U 23037P   23341.09841322  .00000042  00000-0  11276-4 0  9992,2 55927  70.0001 220.9203 0001844 296.7880  63.3091 14.98327118 40463,6950.202,96.107,573.348,570.785,0.0
55927.0,STARLINK-5919,PAYLOAD,2023-12-08 02:23:43,14.98330856,0.000208,69.9995,218.3959,314.9965,45.1025,5.1809e-05,5.25e-06,0.0,0 STARLINK-5919,1 55927U 23037P   23342.09981071  .00000525  00000-0  51809-4 0  9991,2 55927  69.9995 218.3959 0002080 314.9965  45.1025 14.98330856 40616,6950.19,96.107,573.501,570.61,0.0
55927.0,STARLINK-5919,PAYLOAD,2023-12-10 20:05:13,14.9833218,0.000239,69.9984,211.4938,269.9533,90.1352,6.7946e-06,-1.2e-07,0.0,0 STARLINK-5919,1 55927U 23037P   23344.83696178 -.00000012  00000-0  67946-5 0  9998,2 55927  69.9984 211.4938 0002390 269.9533  90.1352 14.98332180 41020,6950.186,96.107,573.712,570.39,0.0
55927.0,STARLINK-5919,PAYLOAD,2023-12-11 00:53:37,14.98331214,0.0002248,69.9985,210.9885,258.5841,101.5066,1.8737e-05,1.31e-06,0.0,0 STARLINK-5919,1 55927U 23037P   23345.03724261  .00000131  00000-0  18737-4 0  9990,2 55927  69.9985 210.9885 0002248 258.5841 101.5066 14.98331214 40715,6950.189,96.107,573.617,570.492,0.0
55927.0,STARLINK-5919,PAYLOAD,2023-12-11 20:07:14,14.98331179,0.0002259,69.9984,208.9685,259.38,100.7104,1.2467e-05,5.6e-07,0.0,0 STARLINK-5919,1 55927U 23037P   23345.83836206  .00000056  00000-0  12467-4 0  9991,2 55927  69.9984 208.9685 0002259 259.3800 100.7104 14.98331179 41170,6950.189,96.107,573.624,570.484,0.0
55927.0,STARLINK-5919,PAYLOAD,2023-12-11 21:43:22,14.98330941,0.0002265,69.9984,208.8002,259.8711,100.2192,8.0776e-06,3e-08,0.0,0 STARLINK-5919,1 55927U 23037P   23345.90512214  .00000003  00000-0  80776-5 0  9990,2 55927  69.9984 208.8002 0002265 259.8711 100.2192 14.98330941 40846,6950.19,96.107,573.629,570.481,0.0
55927.0,STARLINK-5919,PAYLOAD,2023-12-12 00:55:38,14.98331256,0.0002271,69.9983,208.4635,261.5072,98.583,1.0807e-05,3.6e-07,0.0,0 STARLINK-5919,1 55927U 23037P   23346.03864181  .00000036  00000-0  10807-4 0  9991,2 55927  69.9983 208.4635 0002271 261.5072  98.5830 14.98331256 40860,6950.189,96.107,573.632,570.476,0.0
55927.0,STARLINK-5919,PAYLOAD,2023-12-12 20:09:15,14.98323981,0.0002223,69.9983,206.443,261.9451,98.1456,0.0001464,1.654e-05,0.0,0 STARLINK-5919,1 55927U 23037P   23346.83976158  .00001654  00000-0  14640-3 0  9992,2 55927  69.9983 206.4430 0002223 261.9451  98.1456 14.98323981 41321,6950.212,96.107,573.622,570.531,0.0
55927.0,STARLINK-5919,PAYLOAD,2023-12-12 21:45:23,14.98331762,0.0002275,69.9983,206.2751,261.6849,98.4052,1.2814e-05,6e-07,0.0,0 STARLINK-5919,1 55927U 23037P   23346.90652061  .00000060  00000-0  12814-4 0  9996,2 55927  69.9983 206.2751 0002275 261.6849  98.4052 14.98331762 40993,6950.187,96.107,573.634,570.471,0.0
55927.0,STARLINK-5919,PAYLOAD,2023-12-13 00:57:39,14.98332515,0.000227,69.9983,205.9386,262.7266,97.3635,2.1358e-05,1.62e-06,0.0,0 STARLINK-5919,1 55927U 23037P   23347.04003974  .00000162  00000-0  21358-4 0  9991,2 55927  69.9983 205.9386 0002270 262.7266  97.3635 14.98332515 41019,6950.185,96.107,573.628,570.472,0.0
55927.0,STARLINK-5919,PAYLOAD,2023-12-13 21:47:24,14.98332551,0.0002259,69.9983,203.7497,264.6236,95.4666,3.7775e-05,3.58e-06,0.0,0 STARLINK-5919,1 55927U 23037P   23347.90791763  .00000358  00000-0  37775-4 0  9993,2 55927  69.9983 203.7497 0002259 264.6236  95.4666 14.98332551 41140,6950.185,96.107,573.62,570.48,0.0
55927.0,STARLINK-5919,PAYLOAD,2023-12-14 00:59:40,14.9833299,0.0002257,69.9983,203.4131,265.3796,94.7105,4.0736e-05,3.93e-06,0.0,0 STARLINK-5919,1 55927U 23037P   23348.04143705  .00000393  00000-0  40736-4 0  9996,2 55927  69.9983 203.4131 0002257 265.3796  94.7105 14.98332990 41506,6950.184,96.107,573.617,570.48,0.0
55927.0,STARLINK-5919,PAYLOAD,2023-12-14 20:13:17,14.9832979,0.0002047,69.9986,201.393,261.1732,98.9196,-5.8037e-05,-7.85e-06,0.0,0 STARLINK-5919,1 55927U 23037P   23348.84256160 -.00000785  00000-0 -58037-4 0  9994,2 55927  69.9986 201.3930 0002047 261.1732  98.9196 14.98329790 41627,6950.194,96.107,573.481,570.636,0.0
55927.0,STARLINK-5919,PAYLOAD,2023-12-14 21:49:25,14.98327356,0.0002173,69.9986,201.2249,261.7885,98.3027,-2.3169e-05,-3.69e-06,0.0,0 STARLINK-5919,1 55927U 23037P   23348.90932203 -.00000369  00000-0 -23169-4 0  9996,2 55927  69.9986 201.2249 0002173 261.7885  98.3027 14.98327356 41290,6950.201,96.107,573.576,570.556,0.0
55927.0,STARLINK-5919,PAYLOAD,2023-12-14 23:25:33,14.98327977,0.000217,69.9986,201.0567,261.3326,98.7588,-1.6352e-05,-2.88e-06,0.0,0 STARLINK-5919,1 55927U 23037P   23348.97608148 -.00000288  00000-0 -16352-4 0  9997,2 55927  69.9986 201.0567 0002170 261.3326  98.7588 14.98327977 41301,6950.199,96.107,573.572,570.556,0.0
55927.0,STARLINK-5919,PAYLOAD,2023-12-15 20:15:18,14.9832886,0.0002154,69.9987,198.8684,256.2581,103.8339,-1.9001e-05,-3.2e-06,0.0,0 STARLINK-5919,1 55927U 23037P   23349.84396111 -.00000320  00000-0 -19001-4 0  9999,2 55927  69.9987 198.8684 0002154 256.2581 103.8339 14.98328860 41778,6950.196,96.107,573.558,570.564,0.0
55927.0,STARLINK-5919,PAYLOAD,2023-12-15 21:51:26,14.98328012,0.0002165,69.9987,198.7002,258.0048,102.0869,-2.9877e-05,-4.49e-06,0.0,0 STARLINK-5919,1 55927U 23037P   23349.91072207 -.00000449  00000-0 -29877-4 0  9998,2 55927  69.9987 198.7002 0002165 258.0048 102.0869 14.98328012 41443,6950.199,96.107,573.569,570.559,0.0
55927.0,STARLINK-5919,PAYLOAD,2023-12-15 23:27:34,14.98328891,0.000216,69.9987,198.532,257.3034,102.7884,-1.9844e-05,-3.3e-06,0.0,0 STARLINK-5919,1 55927U 23037P   23349.97748127 -.00000330  00000-0 -19844-4 0  9997,2 55927  69.9987 198.5320 0002160 257.3034 102.7884 14.98328891 41456,6950.196,96.107,573.563,570.56,0.0
55927.0,STARLINK-5919,PAYLOAD,2023-12-16 20:17:18,14.98330416,0.0002233,69.9986,196.3433,258.6012,101.4896,6.135e-05,6.39e-06,0.0,0 STARLINK-5919,1 55927U 23037P   23350.84535831  .00000639  00000-0  61350-4 0  9990,2 55927  69.9986 196.3433 0002233 258.6012 101.4896 14.98330416 41924,6950.192,96.107,573.609,570.505,0.0
55927.0,STARLINK-5919,PAYLOAD,2023-12-16 21:53:27,14.98329795,0.0002118,69.9987,196.1751,252.0098,108.083,5.4472e-05,5.57e-06,0.0,0 STARLINK-5919,1 55927U 23037P   23350.91211873  .00000557  00000-0  54472-4 0  9991,2 55927  69.9987 196.1751 0002118 252.0098 108.0830 14.98329795 41592,6950.194,96.107,573.531,570.586,0.0
55927.0,STARLINK-5919,PAYLOAD,2023-12-16 23:29:35,14.98325887,0.0002213,69.9986,196.0067,261.2535,98.8373,0.00012225,1.366e-05,0.0,0 STARLINK-5919,1 55927U 23037P   23350.97887976  .00001366  00000-0  12225-3 0  9998,2 55927  69.9986 196.0067 0002213 261.2535  98.8373 14.98325887 41602,6950.206,96.107,573.609,570.533,0.0
55927.0,STARLINK-5919,PAYLOAD,2023-12-17 20:19:20,14.98330012,0.0002147,69.9986,193.8191,259.2483,100.8434,2.7771e-05,2.38e-06,0.0,0 STARLINK-5919,1 55927U 23037P   23351.84675982  .00000238  00000-0  27771-4 0  9997,2 55927  69.9986 193.8191 0002147 259.2483 100.8434 14.98330012 42070,6950.193,96.107,573.55,570.566,0.0
